{"type": "FeatureCollection", "features": [ {"type": "Feature", "properties": {"norad_id": 41556, "name": "ZIYUAN 3-02 (ZY 3-02)", "group": "resource", "lat": -57.97570799333667, "lon": -120.07225187375384, "alt_km": 502.9162988061353, "timestamp": "2025-12-23T22:42:32.635427+00:00", "meta": {"OBJECT_NAME": "ZIYUAN 3-02 (ZY 3-02)", "OBJECT_ID": "2016-033A", "EPOCH": "2025-12-23T07:27:16.508736", "MEAN_MOTION": 15.2119768, "ECCENTRICITY": 0.00112909, "INCLINATION": 97.4029, "RA_OF_ASC_NODE": 71.301, "ARG_OF_PERICENTER": 206.6081, "MEAN_ANOMALY": 153.4577, "EPHEMERIS_TYPE": 0, "CLASSIFICATION_TYPE": "U", "NORAD_CAT_ID": 41556, "ELEMENT_SET_NO": 999, "REV_AT_EPOCH": 53124, "BSTAR": 0.00034374839, "MEAN_MOTION_DOT": 7.612e-05, "MEAN_MOTION_DDOT": 0}, "tle": {"line1": "1 41556U 16033A   25357.31060774  .00007612  00000+0  34375-3 0  9994", "line2": "2 41556  97.4029  71.3010 0011290 206.6081 153.4577 15.21197680531249"}}, "geometry": {"type": "Point", "coordinates": [-120.07225187375384, -57.97570799333667]}}, {"type": "Feature", "properties": {"norad_id": 41599, "name": "CARTOSAT-2C", "group": "resource", "lat": 77.77290594750717, "lon": -87.62582500764023, "alt_km": 498.55936128054964, "timestamp": "2025-12-23T22:42:32.635437+00:00", "meta": {"OBJECT_NAME": "CARTOSAT-2C", "OBJECT_ID": "2016-040A", "EPOCH": "2025-12-23T08:02:44.483712", "MEAN_MOTION": 15.1920545, "ECCENTRICITY": 0.00108614, "INCLINATION": 97.475, "RA_OF_ASC_NODE": 54.476, "ARG_OF_PERICENTER": 30.4166, "MEAN_ANOMALY": 329.7697, "EPHEMERIS_TYPE": 0, "CLASSIFICATION_TYPE": "U", "NORAD_CAT_ID": 41599, "ELEMENT_SET_NO": 999, "REV_AT_EPOCH": 52701, "BSTAR": 0.0001687368, "MEAN_MOTION_DOT": 3.487e-05, "MEAN_MOTION_DDOT": 0}, "tle": {"line1": "1 41599U 16040A   25357.33523708  .00003487  00000+0  16874-3 0  9992", "line2": "2 41599  97.4750  54.4760 0010861  30.4166 329.7697 15.19205450527014"}}, "geometry": {"type": "Point", "coordinates": [-87.62582500764023, 77.77290594750717]}}, {"type": "Feature", "properties": {"norad_id": 41601, "name": "SKYSAT-C1", "group": "resource", "lat": -22.624904571197742, "lon": 37.25494383271003, "alt_km": 472.23890961154666, "timestamp": "2025-12-23T22:42:32.635447+00:00", "meta": {"OBJECT_NAME": "SKYSAT-C1", "OBJECT_ID": "2016-040C", "EPOCH": "2025-12-23T02:26:23.297856", "MEAN_MOTION": 15.32767948, "ECCENTRICITY": 0.00011597, "INCLINATION": 96.9802, "RA_OF_ASC_NODE": 33.531, "ARG_OF_PERICENTER": 334.4821, "MEAN_ANOMALY": 25.6365, "EPHEMERIS_TYPE": 0, "CLASSIFICATION_TYPE": "U", "NORAD_CAT_ID": 41601, "ELEMENT_SET_NO": 999, "REV_AT_EPOCH": 53086, "BSTAR": 0.00031966452, "MEAN_MOTION_DOT": 0.00010047, "MEAN_MOTION_DDOT": 0}, "tle": {"line1": "1 41601U 16040C   25357.10165854  .00010047  00000+0  31966-3 0  9994", "line2": "2 41601  96.9802  33.5310 0001159 334.4821  25.6365 15.32767948530865"}}, "geometry": {"type": "Point", "coordinates": [37.25494383271003, -22.624904571197742]}}, {"type": "Feature", "properties": {"norad_id": 41603, "name": "LAPAN-A3", "group": "resource", "lat": 75.38536040406052, "lon": -33.651867332376284, "alt_km": 468.9281822204821, "timestamp": "2025-12-23T22:42:32.635457+00:00", "meta": {"OBJECT_NAME": "LAPAN-A3", "OBJECT_ID": "2016-040E", "EPOCH": "2025-12-23T06:41:35.831616", "MEAN_MOTION": 15.3163325, "ECCENTRICITY": 0.00087309, "INCLINATION": 97.143, "RA_OF_ASC_NODE": 354.4518, "ARG_OF_PERICENTER": 290.378, "MEAN_ANOMALY": 69.6524, "EPHEMERIS_TYPE": 0, "CLASSIFICATION_TYPE": "U", "NORAD_CAT_ID": 41603, "ELEMENT_SET_NO": 999, "REV_AT_EPOCH": 52787, "BSTAR": 0.00014790914, "MEAN_MOTION_DOT": 4.448e-05, "MEAN_MOTION_DDOT": 0}, "tle": {"line1": "1 41603U 16040E   25357.27888694  .00004448  00000+0  14791-3 0  9993", "line2": "2 41603  97.1430 354.4518 0008730 290.3780  69.6524 15.31633250527877"}}, "geometry": {"type": "Point", "coordinates": [-33.651867332376284, 75.38536040406052]}}, {"type": "Feature", "properties": {"norad_id": 41604, "name": "BIROS", "group": "resource", "lat": 11.644098295630677, "lon": -148.67118753032392, "alt_km": 290.3586670556242, "timestamp": "2025-12-23T22:42:32.635467+00:00", "meta": {"OBJECT_NAME": "BIROS", "OBJECT_ID": "2016-040F", "EPOCH": "2025-12-23T00:54:41.222304", "MEAN_MOTION": 15.93712142, "ECCENTRICITY": 0.00037921, "INCLINATION": 97.067, "RA_OF_ASC_NODE": 28.9133, "ARG_OF_PERICENTER": 129.7524, "MEAN_ANOMALY": 230.4087, "EPHEMERIS_TYPE": 0, "CLASSIFICATION_TYPE": "U", "NORAD_CAT_ID": 41604, "ELEMENT_SET_NO": 999, "REV_AT_EPOCH": 53036, "BSTAR": 0.00061249698, "MEAN_MOTION_DOT": 0.00219845, "MEAN_MOTION_DDOT": 2.0271061e-05}, "tle": {"line1": "1 41604U 16040F   25357.03797711  .00219845  20271-4  61250-3 0  9995", "line2": "2 41604  97.0670  28.9133 0003792 129.7524 230.4087 15.93712142530369"}}, "geometry": {"type": "Point", "coordinates": [-148.67118753032392, 11.644098295630677]}}, {"type": "Feature", "properties": {"norad_id": 41727, "name": "GAOFEN-3", "group": "resource", "lat": -34.58267745861385, "lon": 177.5121581441019, "alt_km": 758.1822117600004, "timestamp": "2025-12-23T22:42:32.635477+00:00", "meta": {"OBJECT_NAME": "GAOFEN-3", "OBJECT_ID": "2016-049A", "EPOCH": "2025-12-23T06:43:48.160992", "MEAN_MOTION": 14.42216572, "ECCENTRICITY": 0.00011698, "INCLINATION": 98.4031, "RA_OF_ASC_NODE": 2.7056, "ARG_OF_PERICENTER": 55.4291, "MEAN_ANOMALY": 304.7009, "EPHEMERIS_TYPE": 0, "CLASSIFICATION_TYPE": "U", "NORAD_CAT_ID": 41727, "ELEMENT_SET_NO": 999, "REV_AT_EPOCH": 49329, "BSTAR": 8.348763e-05, "MEAN_MOTION_DOT": 2.32e-06, "MEAN_MOTION_DDOT": 0}, "tle": {"line1": "1 41727U 16049A   25357.28041853  .00000232  00000+0  83488-4 0  9995", "line2": "2 41727  98.4031   2.7056 0001169  55.4291 304.7009 14.42216572493295"}}, "geometry": {"type": "Point", "coordinates": [177.5121581441019, -34.58267745861385]}}, {"type": "Feature", "properties": {"norad_id": 41771, "name": "SKYSAT-C4", "group": "resource", "lat": -55.561827835293435, "lon": 32.816621294680054, "alt_km": 447.30293043061283, "timestamp": "2025-12-23T22:42:32.635487+00:00", "meta": {"OBJECT_NAME": "SKYSAT-C4", "OBJECT_ID": "2016-058B", "EPOCH": "2025-12-23T01:09:20.907360", "MEAN_MOTION": 15.42530983, "ECCENTRICITY": 0.00023872, "INCLINATION": 96.9361, "RA_OF_ASC_NODE": 21.7353, "ARG_OF_PERICENTER": 125.8934, "MEAN_ANOMALY": 234.2537, "EPHEMERIS_TYPE": 0, "CLASSIFICATION_TYPE": "U", "NORAD_CAT_ID": 41771, "ELEMENT_SET_NO": 999, "REV_AT_EPOCH": 51826, "BSTAR": 0.0003620547, "MEAN_MOTION_DOT": 0.00015641, "MEAN_MOTION_DDOT": 0}, "tle": {"line1": "1 41771U 16058B   25357.04815865  .00015641  00000+0  36205-3 0  9994", "line2": "2 41771  96.9361  21.7353 0002387 125.8934 234.2537 15.42530983518267"}}, "geometry": {"type": "Point", "coordinates": [32.816621294680054, -55.561827835293435]}}, {"type": "Feature", "properties": {"norad_id": 41772, "name": "SKYSAT-C5", "group": "resource", "lat": -62.58471678661628, "lon": -152.62226632298777, "alt_km": 468.27249931207825, "timestamp": "2025-12-23T22:42:32.635497+00:00", "meta": {"OBJECT_NAME": "SKYSAT-C5", "OBJECT_ID": "2016-058C", "EPOCH": "2025-12-22T20:36:11.255904", "MEAN_MOTION": 15.3404884, "ECCENTRICITY": 0.0003865, "INCLINATION": 97.0737, "RA_OF_ASC_NODE": 40.1871, "ARG_OF_PERICENTER": 242.4795, "MEAN_ANOMALY": 117.6056, "EPHEMERIS_TYPE": 0, "CLASSIFICATION_TYPE": "U", "NORAD_CAT_ID": 41772, "ELEMENT_SET_NO": 999, "REV_AT_EPOCH": 51671, "BSTAR": 0.00031468, "MEAN_MOTION_DOT": 0.00010298, "MEAN_MOTION_DDOT": 0}, "tle": {"line1": "1 41772U 16058C   25356.85846361  .00010298  00000+0  31468-3 0  9997", "line2": "2 41772  97.0737  40.1871 0003865 242.4795 117.6056 15.34048840516715"}}, "geometry": {"type": "Point", "coordinates": [-152.62226632298777, -62.58471678661628]}}, {"type": "Feature", "properties": {"norad_id": 41773, "name": "SKYSAT-C2", "group": "resource", "lat": 26.517399146326554, "lon": 18.46577888839611, "alt_km": 450.7453107698502, "timestamp": "2025-12-23T22:42:32.635508+00:00", "meta": {"OBJECT_NAME": "SKYSAT-C2", "OBJECT_ID": "2016-058D", "EPOCH": "2025-12-23T00:43:31.021824", "MEAN_MOTION": 15.37490716, "ECCENTRICITY": 0.00030252, "INCLINATION": 97.0347, "RA_OF_ASC_NODE": 21.1209, "ARG_OF_PERICENTER": 4.4218, "MEAN_ANOMALY": 355.7053, "EPHEMERIS_TYPE": 0, "CLASSIFICATION_TYPE": "U", "NORAD_CAT_ID": 41773, "ELEMENT_SET_NO": 999, "REV_AT_EPOCH": 51794, "BSTAR": 0.00033635426, "MEAN_MOTION_DOT": 0.00012298, "MEAN_MOTION_DDOT": 0}, "tle": {"line1": "1 41773U 16058D   25357.03022016  .00012298  00000+0  33635-3 0  9992", "line2": "2 41773  97.0347  21.1209 0003025   4.4218 355.7053 15.37490716517945"}}, "geometry": {"type": "Point", "coordinates": [18.46577888839611, 26.517399146326554]}}, {"type": "Feature", "properties": {"norad_id": 41774, "name": "SKYSAT-C3", "group": "resource", "lat": 34.34063119073907, "lon": -144.06247226146257, "alt_km": 428.8336902292767, "timestamp": "2025-12-23T22:42:32.635518+00:00", "meta": {"OBJECT_NAME": "SKYSAT-C3", "OBJECT_ID": "2016-058E", "EPOCH": "2025-12-23T01:52:18.675552", "MEAN_MOTION": 15.4475041, "ECCENTRICITY": 0.00020869, "INCLINATION": 96.9283, "RA_OF_ASC_NODE": 30.3439, "ARG_OF_PERICENTER": 106.8529, "MEAN_ANOMALY": 253.295, "EPHEMERIS_TYPE": 0, "CLASSIFICATION_TYPE": "U", "NORAD_CAT_ID": 41774, "ELEMENT_SET_NO": 999, "REV_AT_EPOCH": 51885, "BSTAR": 0.00042584733, "MEAN_MOTION_DOT": 0.0001985, "MEAN_MOTION_DDOT": 0}, "tle": {"line1": "1 41774U 16058E   25357.07799393  .00019850  00000+0  42585-3 0  9991", "line2": "2 41774  96.9283  30.3439 0002086 106.8529 253.2950 15.44750410518855"}}, "geometry": {"type": "Point", "coordinates": [-144.06247226146257, 34.34063119073907]}}]}